IRIDIUM 173             
1 43925U 19002D   26115.79054374 -.00000027  00000+0 -16873-4 0  9998
2 43925  86.4009  15.4605 0002080  87.6447 272.4987 14.34217081381449
IRIDIUM 169             
1 43926U 19002E   26115.87674911  .00000349  00000+0  10772-3 0  9999
2 43926  86.4241  47.0523 0002805  93.4141 266.7378 14.38608282382700
IRIDIUM 172             
1 43927U 19002F   26115.78419881  .00000011  00000+0 -32225-5 0  9999
2 43927  86.4007  15.4708 0001989  85.1280 275.0143 14.34218808381450
IRIDIUM 175             
1 43928U 19002G   26115.94261755  .00000095  00000+0  22191-4 0  9994
2 43928  86.4489 312.3757 0004872  57.6751 302.4922 14.43590193391449
IRIDIUM 171             
1 43929U 19002H   26115.97447907 -.00000026  00000+0 -16289-4 0  9990
2 43929  86.4020  15.6917 0002198  82.7324 277.4122 14.34217265381477
IRIDIUM 170             
1 43930U 19002J   26115.96597297  .00000763  00000+0  11702-3 0  9999
2 43930  86.6136  15.3744 0002251  83.8660 276.2814 14.72253309391577
IRIDIUM 167             
1 43931U 19002K   26115.96813651  .00000002  00000+0 -63268-5 0  9998
2 43931  86.4012  15.4161 0002389  82.3217 277.8250 14.34217605381473
IRIDIUM 181             
1 56726U 23068S   26115.90142211  .00000403  00000+0  11383-3 0  9995
2 56726  86.4473  78.6436 0002150  80.8223 279.3221 14.43310071154892
IRIDIUM 177             
1 56727U 23068T   26115.72863311  .00000868  00000+0  11077-3 0  9992
2 56727  86.1995 353.7083 0002275  92.5475 267.6007 14.80233487158602
IRIDIUM 174             
1 56728U 23068U   26115.74970467  .00000596  00000+0  90694-4 0  9997
2 56728  86.6135  15.6057 0002430  96.7595 263.3899 14.72252172158303
IRIDIUM 178             
1 56729U 23068V   26115.85283344  .00001138  00000+0  14637-3 0  9996
2 56729  86.6568  47.2225 0002487  70.0453 290.1036 14.80231544158627
IRIDIUM 179             
1 56730U 23068W   26115.84746385  .00001119  00000+0  14383-3 0  9993
2 56730  86.6784  56.0482 0002872  82.5674 277.5874 14.80234534158624
