[{"OBJECT_NAME":"IRIDIUM 173","OBJECT_ID":"2019-002D","EPOCH":"2026-04-25T18:58:22.979136","MEAN_MOTION":14.34217081,"ECCENTRICITY":0.00020803,"INCLINATION":86.4009,"RA_OF_ASC_NODE":15.4605,"ARG_OF_PERICENTER":87.6447,"MEAN_ANOMALY":272.4987,"EPHEMERIS_TYPE":0,"CLASSIFICATION_TYPE":"U","NORAD_CAT_ID":43925,"ELEMENT_SET_NO":999,"REV_AT_EPOCH":38144,"BSTAR":-1.687344e-5,"MEAN_MOTION_DOT":-2.7e-7,"MEAN_MOTION_DDOT":0},{"OBJECT_NAME":"IRIDIUM 169","OBJECT_ID":"2019-002E","EPOCH":"2026-04-25T21:02:31.123104","MEAN_MOTION":14.38608282,"ECCENTRICITY":0.00028051,"INCLINATION":86.4241,"RA_OF_ASC_NODE":47.0523,"ARG_OF_PERICENTER":93.4141,"MEAN_ANOMALY":266.7378,"EPHEMERIS_TYPE":0,"CLASSIFICATION_TYPE":"U","NORAD_CAT_ID":43926,"ELEMENT_SET_NO":999,"REV_AT_EPOCH":38270,"BSTAR":0.00010772004,"MEAN_MOTION_DOT":3.49e-6,"MEAN_MOTION_DDOT":0},{"OBJECT_NAME":"IRIDIUM 172","OBJECT_ID":"2019-002F","EPOCH":"2026-04-25T18:49:14.777184","MEAN_MOTION":14.34218808,"ECCENTRICITY":0.00019895,"INCLINATION":86.4007,"RA_OF_ASC_NODE":15.4708,"ARG_OF_PERICENTER":85.128,"MEAN_ANOMALY":275.0143,"EPHEMERIS_TYPE":0,"CLASSIFICATION_TYPE":"U","NORAD_CAT_ID":43927,"ELEMENT_SET_NO":999,"REV_AT_EPOCH":38145,"BSTAR":-3.222526e-6,"MEAN_MOTION_DOT":1.1e-7,"MEAN_MOTION_DDOT":0},{"OBJECT_NAME":"IRIDIUM 175","OBJECT_ID":"2019-002G","EPOCH":"2026-04-25T22:37:22.156320","MEAN_MOTION":14.43590193,"ECCENTRICITY":0.00048723,"INCLINATION":86.4489,"RA_OF_ASC_NODE":312.3757,"ARG_OF_PERICENTER":57.6751,"MEAN_ANOMALY":302.4922,"EPHEMERIS_TYPE":0,"CLASSIFICATION_TYPE":"U","NORAD_CAT_ID":43928,"ELEMENT_SET_NO":999,"REV_AT_EPOCH":39144,"BSTAR":2.2190692e-5,"MEAN_MOTION_DOT":9.5e-7,"MEAN_MOTION_DDOT":0},{"OBJECT_NAME":"IRIDIUM 171","OBJECT_ID":"2019-002H","EPOCH":"2026-04-25T23:23:14.991648","MEAN_MOTION":14.34217265,"ECCENTRICITY":0.0002198,"INCLINATION":86.402,"RA_OF_ASC_NODE":15.6917,"ARG_OF_PERICENTER":82.7324,"MEAN_ANOMALY":277.4122,"EPHEMERIS_TYPE":0,"CLASSIFICATION_TYPE":"U","NORAD_CAT_ID":43929,"ELEMENT_SET_NO":999,"REV_AT_EPOCH":38147,"BSTAR":-1.628949e-5,"MEAN_MOTION_DOT":-2.6e-7,"MEAN_MOTION_DDOT":0},{"OBJECT_NAME":"IRIDIUM 170","OBJECT_ID":"2019-002J","EPOCH":"2026-04-25T23:11:00.064608","MEAN_MOTION":14.72253309,"ECCENTRICITY":0.0002251,"INCLINATION":86.6136,"RA_OF_ASC_NODE":15.3744,"ARG_OF_PERICENTER":83.866,"MEAN_ANOMALY":276.2814,"EPHEMERIS_TYPE":0,"CLASSIFICATION_TYPE":"U","NORAD_CAT_ID":43930,"ELEMENT_SET_NO":999,"REV_AT_EPOCH":39157,"BSTAR":0.00011702253,"MEAN_MOTION_DOT":7.63e-6,"MEAN_MOTION_DDOT":0},{"OBJECT_NAME":"IRIDIUM 167","OBJECT_ID":"2019-002K","EPOCH":"2026-04-25T23:14:06.994464","MEAN_MOTION":14.34217605,"ECCENTRICITY":0.00023896,"INCLINATION":86.4012,"RA_OF_ASC_NODE":15.4161,"ARG_OF_PERICENTER":82.3217,"MEAN_ANOMALY":277.825,"EPHEMERIS_TYPE":0,"CLASSIFICATION_TYPE":"U","NORAD_CAT_ID":43931,"ELEMENT_SET_NO":999,"REV_AT_EPOCH":38147,"BSTAR":-6.326797e-6,"MEAN_MOTION_DOT":2.0e-8,"MEAN_MOTION_DDOT":0},{"OBJECT_NAME":"IRIDIUM 181","OBJECT_ID":"2023-068S","EPOCH":"2026-04-25T21:38:02.870304","MEAN_MOTION":14.43310071,"ECCENTRICITY":0.00021504,"INCLINATION":86.4473,"RA_OF_ASC_NODE":78.6436,"ARG_OF_PERICENTER":80.8223,"MEAN_ANOMALY":279.3221,"EPHEMERIS_TYPE":0,"CLASSIFICATION_TYPE":"U","NORAD_CAT_ID":56726,"ELEMENT_SET_NO":999,"REV_AT_EPOCH":15489,"BSTAR":0.00011382637,"MEAN_MOTION_DOT":4.03e-6,"MEAN_MOTION_DDOT":0},{"OBJECT_NAME":"IRIDIUM 177","OBJECT_ID":"2023-068T","EPOCH":"2026-04-25T17:29:13.900704","MEAN_MOTION":14.80233487,"ECCENTRICITY":0.0002275,"INCLINATION":86.1995,"RA_OF_ASC_NODE":353.7083,"ARG_OF_PERICENTER":92.5475,"MEAN_ANOMALY":267.6007,"EPHEMERIS_TYPE":0,"CLASSIFICATION_TYPE":"U","NORAD_CAT_ID":56727,"ELEMENT_SET_NO":999,"REV_AT_EPOCH":15860,"BSTAR":0.00011076724,"MEAN_MOTION_DOT":8.68e-6,"MEAN_MOTION_DDOT":0},{"OBJECT_NAME":"IRIDIUM 174","OBJECT_ID":"2023-068U","EPOCH":"2026-04-25T17:59:34.483488","MEAN_MOTION":14.72252172,"ECCENTRICITY":0.00024308,"INCLINATION":86.6135,"RA_OF_ASC_NODE":15.6057,"ARG_OF_PERICENTER":96.7595,"MEAN_ANOMALY":263.3899,"EPHEMERIS_TYPE":0,"CLASSIFICATION_TYPE":"U","NORAD_CAT_ID":56728,"ELEMENT_SET_NO":999,"REV_AT_EPOCH":15830,"BSTAR":9.0694124e-5,"MEAN_MOTION_DOT":5.96e-6,"MEAN_MOTION_DDOT":0},{"OBJECT_NAME":"IRIDIUM 178","OBJECT_ID":"2023-068V","EPOCH":"2026-04-25T20:28:04.809216","MEAN_MOTION":14.80231544,"ECCENTRICITY":0.00024878,"INCLINATION":86.6568,"RA_OF_ASC_NODE":47.2225,"ARG_OF_PERICENTER":70.0453,"MEAN_ANOMALY":290.1036,"EPHEMERIS_TYPE":0,"CLASSIFICATION_TYPE":"U","NORAD_CAT_ID":56729,"ELEMENT_SET_NO":999,"REV_AT_EPOCH":15862,"BSTAR":0.00014636556,"MEAN_MOTION_DOT":1.138e-5,"MEAN_MOTION_DDOT":0},{"OBJECT_NAME":"IRIDIUM 179","OBJECT_ID":"2023-068W","EPOCH":"2026-04-25T20:20:20.876640","MEAN_MOTION":14.80234534,"ECCENTRICITY":0.0002872,"INCLINATION":86.6784,"RA_OF_ASC_NODE":56.0482,"ARG_OF_PERICENTER":82.5674,"MEAN_ANOMALY":277.5874,"EPHEMERIS_TYPE":0,"CLASSIFICATION_TYPE":"U","NORAD_CAT_ID":56730,"ELEMENT_SET_NO":999,"REV_AT_EPOCH":15862,"BSTAR":0.00014382686,"MEAN_MOTION_DOT":1.119e-5,"MEAN_MOTION_DDOT":0}]
